{
  "type": "FeatureCollection",
  "features": [
    {
      "type": "Feature",
      "properties": {
        "norad_id": 33376,
        "name": "GALAXY 19 (G-19)",
        "group": "intelsat",
        "lat": 0.03166573353805851,
        "lon": 55.921269710227456,
        "alt_km": 35794.34683250301,
        "timestamp": "2025-12-25T03:55:55.974856+00:00",
        "meta_object_name": "GALAXY 19 (G-19)",
        "meta_object_id": "2008-045A",
        "meta_epoch": "2025-12-24T14:21:03.877056",
        "meta_mean_motion": 1.00271747,
        "meta_eccentricity": 0.000266,
        "meta_inclination": 0.0428,
        "meta_ra_of_asc_node": 265.007,
        "meta_arg_of_pericenter": 13.9118,
        "meta_mean_anomaly": 292.7134,
        "meta_ephemeris_type": 0,
        "meta_classification_type": "U",
        "meta_norad_cat_id": 33376,
        "meta_element_set_no": 999,
        "meta_rev_at_epoch": 6315,
        "meta_bstar": 0,
        "meta_mean_motion_dot": -1.18e-06,
        "meta_mean_motion_ddot": 0,
        "tle_line1": "1 33376U 08045A   25358.59796154 -.00000118  00000+0  00000+0 0  9997",
        "tle_line2": "2 33376   0.0428 265.0070 0002660  13.9118 292.7134  1.00271747 63157"
      },
      "geometry": {
        "type": "Point",
        "coordinates": [
          55.921269710227456,
          0.03166573353805851
        ]
      }
    },
    {
      "type": "Feature",
      "properties": {
        "norad_id": 35493,
        "name": "FM-5",
        "group": "intelsat",
        "lat": 0.022526323892342576,
        "lon": 66.7463352104666,
        "alt_km": 35786.78809485466,
        "timestamp": "2025-12-25T03:55:55.974868+00:00",
        "meta_object_name": "FM-5",
        "meta_object_id": "2009-034A",
        "meta_epoch": "2025-12-24T14:24:11.079072",
        "meta_mean_motion": 1.00269871,
        "meta_eccentricity": 8.87e-05,
        "meta_inclination": 0.0192,
        "meta_ra_of_asc_node": 294.5912,
        "meta_arg_of_pericenter": 224.4062,
        "meta_mean_anomaly": 64.2769,
        "meta_ephemeris_type": 0,
        "meta_classification_type": "U",
        "meta_norad_cat_id": 35493,
        "meta_element_set_no": 999,
        "meta_rev_at_epoch": 4489,
        "meta_bstar": 0,
        "meta_mean_motion_dot": -1.79e-06,
        "meta_mean_motion_ddot": 0,
        "tle_line1": "1 35493U 09034A   25358.60012823 -.00000179  00000+0  00000+0 0  9991",
        "tle_line2": "2 35493   0.0192 294.5912 0000887 224.4062  64.2769  1.00269871 44896"
      },
      "geometry": {
        "type": "Point",
        "coordinates": [
          66.7463352104666,
          0.022526323892342576
        ]
      }
    },
    {
      "type": "Feature",
      "properties": {
        "norad_id": 36097,
        "name": "INTELSAT 14 (IS-14)",
        "group": "intelsat",
        "lat": 0.03376085533849608,
        "lon": 107.88399404503008,
        "alt_km": 35797.955724379506,
        "timestamp": "2025-12-25T03:55:55.974881+00:00",
        "meta_object_name": "INTELSAT 14 (IS-14)",
        "meta_object_id": "2009-064A",
        "meta_epoch": "2025-12-24T04:24:38.589408",
        "meta_mean_motion": 1.00269199,
        "meta_eccentricity": 0.00026128,
        "meta_inclination": 0.0125,
        "meta_ra_of_asc_node": 9.068,
        "meta_arg_of_pericenter": 276.4892,
        "meta_mean_anomaly": 188.5557,
        "meta_ephemeris_type": 0,
        "meta_classification_type": "U",
        "meta_norad_cat_id": 36097,
        "meta_element_set_no": 999,
        "meta_rev_at_epoch": 5885,
        "meta_bstar": 0,
        "meta_mean_motion_dot": -2.53e-06,
        "meta_mean_motion_ddot": 0,
        "tle_line1": "1 36097U 09064A   25358.18377997 -.00000253  00000+0  00000+0 0  9997",
        "tle_line2": "2 36097   0.0125   9.0680 0002612 276.4892 188.5557  1.00269199 58859"
      },
      "geometry": {
        "type": "Point",
        "coordinates": [
          107.88399404503008,
          0.03376085533849608
        ]
      }
    },
    {
      "type": "Feature",
      "properties": {
        "norad_id": 36106,
        "name": "INTELSAT 15 (IS-15)",
        "group": "intelsat",
        "lat": -0.012910002559549822,
        "lon": -121.95855839740801,
        "alt_km": 35779.7679055757,
        "timestamp": "2025-12-25T03:55:55.974893+00:00",
        "meta_object_name": "INTELSAT 15 (IS-15)",
        "meta_object_id": "2009-067A",
        "meta_epoch": "2025-12-24T19:44:15.860256",
        "meta_mean_motion": 1.00270653,
        "meta_eccentricity": 0.0002334,
        "meta_inclination": 0.0103,
        "meta_ra_of_asc_node": 45.3233,
        "meta_arg_of_pericenter": 240.4709,
        "meta_mean_anomaly": 189.0214,
        "meta_ephemeris_type": 0,
        "meta_classification_type": "U",
        "meta_norad_cat_id": 36106,
        "meta_element_set_no": 999,
        "meta_rev_at_epoch": 3948,
        "meta_bstar": 0,
        "meta_mean_motion_dot": -1.64e-06,
        "meta_mean_motion_ddot": 0,
        "tle_line1": "1 36106U 09067A   25358.82240579 -.00000164  00000+0  00000+0 0  9998",
        "tle_line2": "2 36106   0.0103  45.3233 0002334 240.4709 189.0214  1.00270653 39483"
      },
      "geometry": {
        "type": "Point",
        "coordinates": [
          -121.95855839740801,
          -0.012910002559549822
        ]
      }
    },
    {
      "type": "Feature",
      "properties": {
        "norad_id": 36131,
        "name": "DIRECTV 12",
        "group": "intelsat",
        "lat": 0.00024323574630349192,
        "lon": 50.20646467500046,
        "alt_km": 35785.47698360398,
        "timestamp": "2025-12-25T03:55:55.974904+00:00",
        "meta_object_name": "DIRECTV 12",
        "meta_object_id": "2009-075A",
        "meta_epoch": "2025-12-24T14:19:26.532768",
        "meta_mean_motion": 1.00274235,
        "meta_eccentricity": 5.75e-05,
        "meta_inclination": 0.0184,
        "meta_ra_of_asc_node": 118.0209,
        "meta_arg_of_pericenter": 200.6669,
        "meta_mean_anomaly": 246.832,
        "meta_ephemeris_type": 0,
        "meta_classification_type": "U",
        "meta_norad_cat_id": 36131,
        "meta_element_set_no": 999,
        "meta_rev_at_epoch": 4480,
        "meta_bstar": 0,
        "meta_mean_motion_dot": -8.3e-07,
        "meta_mean_motion_ddot": 0,
        "tle_line1": "1 36131U 09075A   25358.59683487 -.00000083  00000+0  00000+0 0  9998",
        "tle_line2": "2 36131   0.0184 118.0209 0000575 200.6669 246.8320  1.00274235 44801"
      },
      "geometry": {
        "type": "Point",
        "coordinates": [
          50.20646467500046,
          0.00024323574630349192
        ]
      }
    },
    {
      "type": "Feature",
      "properties": {
        "norad_id": 36397,
        "name": "INTELSAT 16 (IS-16)",
        "group": "intelsat",
        "lat": 0.025031555803526374,
        "lon": 76.72004057752768,
        "alt_km": 35794.55655249546,
        "timestamp": "2025-12-25T03:55:55.974917+00:00",
        "meta_object_name": "INTELSAT 16 (IS-16)",
        "meta_object_id": "2010-006A",
        "meta_epoch": "2025-12-24T05:27:09.190080",
        "meta_mean_motion": 1.00271444,
        "meta_eccentricity": 0.00020354,
        "meta_inclination": 0.0102,
        "meta_ra_of_asc_node": 330.7873,
        "meta_arg_of_pericenter": 301.5522,
        "meta_mean_anomaly": 186.2641,
        "meta_ephemeris_type": 0,
        "meta_classification_type": "U",
        "meta_norad_cat_id": 36397,
        "meta_element_set_no": 999,
        "meta_rev_at_epoch": 5790,
        "meta_bstar": 0,
        "meta_mean_motion_dot": -2.24e-06,
        "meta_mean_motion_ddot": 0,
        "tle_line1": "1 36397U 10006A   25358.22718970 -.00000224  00000+0  00000+0 0  9991",
        "tle_line2": "2 36397   0.0102 330.7873 0002035 301.5522 186.2641  1.00271444 57904"
      },
      "geometry": {
        "type": "Point",
        "coordinates": [
          76.72004057752768,
          0.025031555803526374
        ]
      }
    },
    {
      "type": "Feature",
      "properties": {
        "norad_id": 37185,
        "name": "XM-5",
        "group": "intelsat",
        "lat": 0.0573471104732668,
        "lon": 37.67677774498284,
        "alt_km": 35789.92749205429,
        "timestamp": "2025-12-25T03:55:55.974929+00:00",
        "meta_object_name": "XM-5",
        "meta_object_id": "2010-053A",
        "meta_epoch": "2025-12-24T05:59:38.935680",
        "meta_mean_motion": 1.0026917,
        "meta_eccentricity": 0.00020949,
        "meta_inclination": 0.0667,
        "meta_ra_of_asc_node": 269.9385,
        "meta_arg_of_pericenter": 238.903,
        "meta_mean_anomaly": 278.9005,
        "meta_ephemeris_type": 0,
        "meta_classification_type": "U",
        "meta_norad_cat_id": 37185,
        "meta_element_set_no": 999,
        "meta_rev_at_epoch": 5572,
        "meta_bstar": 0,
        "meta_mean_motion_dot": -2e-08,
        "meta_mean_motion_ddot": 0,
        "tle_line1": "1 37185U 10053A   25358.24975620 -.00000002  00000+0  00000+0 0  9992",
        "tle_line2": "2 37185   0.0667 269.9385 0002094 238.9030 278.9005  1.00269170 55723"
      },
      "geometry": {
        "type": "Point",
        "coordinates": [
          37.67677774498284,
          0.0573471104732668
        ]
      }
    }
  ]
}